IRIDIUM 150             
1 43257U 18030J   24152.20638209  .00000217  00000+0  70497-4 0  9997
2 43257  86.3986 242.6082 0002173 102.7401 257.4037 14.34219113323112
IRIDIUM 143             
1 43258U 18030K   24151.76874555  .00000487  00000+0  16679-3 0  9994
2 43258  86.3990 242.8542 0002253 102.3220 257.8228 14.34218777322968
IRIDIUM 161             
1 43478U 18047C   24151.78254889  .00000306  00000+0  85069-4 0  9990
2 43478  86.4511  40.8198 0002418  89.4707 270.6770 14.43277150317333
IRIDIUM 152             
1 43479U 18047D   24151.60192405  .00000405  00000+0  13741-3 0  9994
2 43479  86.3986  40.7549 0002177  85.5707 274.5737 14.34220318315335
IRIDIUM 147             
1 43480U 18047E   24152.16641487  .00000402  00000+0  13631-3 0  9992
2 43480  86.3989  40.5112 0002148  82.2813 277.8626 14.34218900315410
IRIDIUM 110             
1 43481U 18047F   24152.17275676  .00000131  00000+0  39670-4 0  9998
2 43481  86.3991  40.5812 0002130  73.1190 287.0239 14.34219039315405
IRIDIUM 162             
1 43482U 18047G   24152.19226024  .00000567  00000+0  16260-3 0  9996
2 43482  86.4510  40.5490 0002111  84.6130 275.5312 14.43286497317381
IRIDIUM 160             
1 43569U 18061A   24152.11859877  .00000455  00000+0  15547-3 0  9991
2 43569  86.3986   8.9865 0002490  79.0732 281.0744 14.34218261306296
